{
"type": "FeatureCollection",
"name": "batas_desa",
"crs": { "type": "name", "properties": { "name": "urn:ogc:def:crs:OGC:1.3:CRS84" } },
"features": [
{"type":"Feature","properties":{"fid":16707.0,"ori_name":"Senggreng","kode_kec":"35.07.12","kode_kd":"35.07.12.2002","kode_kk":"35.07","kode_pro":"35","tipe_kd":1.0,"kecamata":"Sumberpucung","kel_desa":"Senggreng","kab_kota":"Malang","provinsi":"Jawa Timur","jenis_kd":"Desa","nama":"Desa Senggreng","label":"Desa Senggreng, Kecamatan Sumberpucung, Kabupaten Malang, Provinsi Jawa Timur, 35.07.12.2002"},"geometry":{"type":"MultiPolygon","coordinates":[[[[112.517411182,-8.15598992799994],[112.517409203,-8.15599976399994],[112.517605532,-8.156048470999959],[112.519704896,-8.15674512099997],[112.51944682,-8.157459953999931],[112.519473277,-8.15784922999995],[112.520096918,-8.158075992999949],[112.52029336,-8.158126104999949],[112.520837718,-8.15826496899996],[112.521450014,-8.15841614299995],[112.522009402,-8.15854464899996],[112.522285312,-8.158627785999951],[112.522451949,-8.15816310199995],[112.523028479,-8.158516615999931],[112.523714331,-8.158690818999959],[112.523678695,-8.15892246599998],[112.523591587,-8.159140252999981],[112.523510419,-8.15932240299998],[112.523429251,-8.159510491999979],[112.523352041,-8.15968472199995],[112.52328473,-8.159872810999961],[112.523233258,-8.160007443999969],[112.523176836,-8.160154945999979],[112.52314615,-8.16026878999998],[112.523064982,-8.16045489799995],[112.522979853,-8.16060734999996],[112.522912543,-8.16076376099994],[112.52286305,-8.161036985999941],[112.522837313,-8.161409204999931],[112.522825434,-8.161811121999961],[112.522819496,-8.16211008399995],[112.522825434,-8.162349650999939],[112.522825434,-8.162533779999929],[112.522796729,-8.162791164999931],[112.522694772,-8.16306042999997],[112.522619543,-8.163254458999971],[112.522514617,-8.163480165999941],[112.522413653,-8.163630637999971],[112.522337434,-8.16373854099993],[112.522233498,-8.163804867999939],[112.522097886,-8.163862283999951],[112.521956336,-8.163882082999979],[112.521836706,-8.16386728899994],[112.521772223,-8.16385931399998],[112.521586128,-8.163834565999929],[112.521453487,-8.163810806999949],[112.521309957,-8.163777148999939],[112.52121223,-8.163761309999931],[112.521130791,-8.163748110999959],[112.520923869,-8.16367799899996],[112.520893758,-8.16365219299996],[112.520864414,-8.163653100999969],[112.520817784,-8.163668427999941],[112.520784463,-8.163675730999961],[112.520758803,-8.16366306799995],[112.52068186,-8.163634646999981],[112.520646572,-8.16361563999993],[112.520614084,-8.163581139999961],[112.520496623,-8.163753370999929],[112.520452093,-8.16383009799995],[112.520398042,-8.16392918999998],[112.520356701,-8.164002713999929],[112.520324964,-8.164076202999979],[112.520289978,-8.16413694299996],[112.520277353,-8.16418483999996],[112.520245568,-8.16424556899995],[112.520188316,-8.16434467299996],[112.519527926,-8.164111094999949],[112.519457925,-8.164048393999961],[112.518831705,-8.165408833999949],[112.518371553,-8.165213579999939],[112.518209351,-8.165498095999959],[112.518152044,-8.16558284499996],[112.518110691,-8.16565317899995],[112.518069301,-8.16571394399995],[112.518053565,-8.16578577699994],[112.518004382,-8.16590239599998],[112.517967921,-8.16599663699998],[112.517931387,-8.166071737999969],[112.517835964,-8.16623637899994],[112.517816731,-8.166230070999969],[112.517781497,-8.166225418999939],[112.517768721,-8.166233440999971],[112.517757576,-8.16624943299996],[112.51775127,-8.166274975999951],[112.517751396,-8.166308470999979],[112.517717273,-8.166385954999949],[112.516920743,-8.16634507999993],[112.516903557,-8.16642680099994],[112.516839065,-8.167452849999959],[112.516835289,-8.16751267699993],[112.517067637,-8.167575604999969],[112.517504352,-8.16762198299995],[112.517444392,-8.168473530999959],[112.517424925,-8.16861715299996],[112.51781312,-8.16861968399996],[112.517792884,-8.16855994799994],[112.518040939,-8.168543067999961],[112.517806418,-8.16973697499998],[112.517763564,-8.16999411799998],[112.517577633,-8.170663938999949],[112.517553441,-8.17077246599996],[112.517575329,-8.17093905699994],[112.517573933,-8.17094246099998],[112.51750644,-8.171107030999959],[112.517441007,-8.171208413999979],[112.51743265,-8.171230995999959],[112.517393085,-8.17133790799994],[112.517328112,-8.171492747999929],[112.517296318,-8.17163030699993],[112.517225829,-8.171747410999959],[112.517212684,-8.171769247999981],[112.517158331,-8.171906527999971],[112.51707721,-8.17211141599995],[112.51699634,-8.172313952999961],[112.516873307,-8.17263884099998],[112.516812482,-8.172851744999949],[112.516761335,-8.173032851999951],[112.516711262,-8.17321004299993],[112.516707421,-8.17322363699998],[112.516663185,-8.17336188699994],[112.516616184,-8.17354161099996],[112.51654983,-8.17370543799996],[112.516512505,-8.173820875999979],[112.516426797,-8.174107054999981],[112.516381179,-8.17423839099996],[112.516321736,-8.17443332299996],[112.516215292,-8.17479830299993],[112.516363208,-8.174824570999929],[112.516527481,-8.17484663899995],[112.51659476,-8.17485567799997],[112.516759952,-8.174916506999979],[112.516939663,-8.174991161999969],[112.516978506,-8.175130032999959],[112.517087503,-8.175167903999981],[112.51733094,-8.17519888999993],[112.517497757,-8.175287582999941],[112.517702897,-8.17535061199993],[112.517818489,-8.17543949799995],[112.518010799,-8.175496194999941],[112.518171141,-8.17556577199997],[112.518628961,-8.175622693999969],[112.518592638,-8.175707465999951],[112.51858012,-8.17573667999994],[112.518573275,-8.175752655999929],[112.51856865,-8.17576207499997],[112.518529427,-8.17584194199998],[112.518404999,-8.176169191999969],[112.5183663,-8.176354956999941],[112.518350821,-8.176498150999979],[112.518348886,-8.176726487999931],[112.518231366,-8.17698079499996],[112.518238905,-8.17711618599998],[112.518222425,-8.17730160799994],[112.518151559,-8.17749032699993],[112.518135573,-8.17750391599998],[112.518052675,-8.177574384999961],[112.517986978,-8.177658006999931],[112.517952965,-8.177701298999979],[112.517837602,-8.17783892099993],[112.517742014,-8.17800538899996],[112.517632264,-8.17815291199997],[112.5175368,-8.178238836999981],[112.517478328,-8.17841545899995],[112.517453269,-8.178697100999949],[112.517446109,-8.17889043099996],[112.517572599,-8.179045572999939],[112.517613171,-8.17917445999996],[112.517725341,-8.179257996999979],[112.517856604,-8.179429847999931],[112.517973547,-8.17955396099995],[112.518069011,-8.179685233999979],[112.518052305,-8.179858276999941],[112.517904336,-8.180093375999951],[112.517890017,-8.180269998999959],[112.517893597,-8.180443040999929],[112.517921042,-8.18061846999996],[112.51789121,-8.18084640999996],[112.517787393,-8.18101467799994],[112.517777847,-8.181178173999969],[112.51789837,-8.181321381999959],[112.517949681,-8.18145146099994],[112.517885307,-8.181622106999949],[112.517883652,-8.18162649299995],[112.517850638,-8.18175577699998],[112.517916269,-8.18193836799998],[112.518127483,-8.18207202799994],[112.518209821,-8.182234330999959],[112.518262326,-8.182372763999981],[112.518221753,-8.182508810999931],[112.518226378,-8.182616355999929],[112.5182313,-8.18273078299995],[112.518226526,-8.182919339999961],[112.518259939,-8.18305777199993],[112.518286192,-8.183240363999969],[112.518137475,-8.18339737799994],[112.518138234,-8.183549813999949],[112.518064136,-8.18367712299994],[112.517978737,-8.183724493999931],[112.517907705,-8.18376389499997],[112.51787889,-8.183954540999929],[112.517926759,-8.184106388999959],[112.517939688,-8.18414740099996],[112.517914634,-8.184293077999939],[112.517898839,-8.18438491699993],[112.517960588,-8.184557828999971],[112.518010937,-8.18470128499996],[112.518009987,-8.18482954299998],[112.518018537,-8.185029054999969],[112.518083905,-8.18518777999998],[112.518093858,-8.18521194799996],[112.518068337,-8.185293931999979],[112.518060061,-8.18532051899996],[112.518049967,-8.18543776899998],[112.518075589,-8.18556355699997],[112.518087142,-8.18566946999994],[112.518098882,-8.18577708899994],[112.518129161,-8.185917632999971],[112.518172613,-8.185958811999971],[112.518205977,-8.18597655099995],[112.518241869,-8.18598534699993],[112.518259808,-8.18598783199997],[112.518287996,-8.185991553999941],[112.518311121,-8.186010606999959],[112.518331703,-8.18603477299996],[112.518345005,-8.18606360799993],[112.518370132,-8.18611128699996],[112.518418308,-8.186150980999971],[112.518452476,-8.186190726999939],[112.518490631,-8.186226470999941],[112.51850269,-8.18624038099995],[112.518526732,-8.18624826599995],[112.518578774,-8.18625205799998],[112.5186127,-8.186228004999981],[112.518634628,-8.186205991999939],[112.518704643,-8.186152197999951],[112.518809404,-8.18602837999993],[112.51889789,-8.185924242999929],[112.51891748,-8.18589636099995],[112.518996556,-8.185783810999959],[112.519156145,-8.18572953899996],[112.519272043,-8.18572677999992],[112.519373224,-8.185749776999961],[112.519467046,-8.18581693099998],[112.519573746,-8.18590339899993],[112.51965837,-8.185946940999941],[112.519808295,-8.18588592999993],[112.519844483,-8.185871203999969],[112.519884189,-8.18585426999994],[112.519915991,-8.185840706999951],[112.520029983,-8.185792090999939],[112.520138294,-8.18579850499998],[112.520169794,-8.18580036999998],[112.520214324,-8.185804418999959],[112.52033843,-8.18581570199996],[112.520345792,-8.185816677999981],[112.520436984,-8.185828766999981],[112.520521169,-8.185839926999961],[112.520627011,-8.185810138999949],[112.520704215,-8.185788410999979],[112.520802623,-8.185771646999971],[112.520933712,-8.18574931599994],[112.520970137,-8.185717303999979],[112.521038266,-8.18565742799996],[112.521070306,-8.185629269999939],[112.521098306,-8.185585135999929],[112.52112127,-8.18556208099994],[112.521145583,-8.18555688599997],[112.521176294,-8.18555038999995],[112.521268355,-8.18551176399995],[112.521304223,-8.18551418099997],[112.521340115,-8.18552297699995],[112.521382444,-8.185540681999949],[112.521424749,-8.18555200599997],[112.521458094,-8.18556463999994],[112.521492671,-8.185564509999949],[112.521527244,-8.185563103999931],[112.521556665,-8.18555406099995],[112.52157455,-8.18554250999995],[112.521604017,-8.18552151699993],[112.521625621,-8.185501485999961],[112.52164861,-8.18548481199997],[112.521693384,-8.185471882999931],[112.521716396,-8.185461587999949],[112.521757372,-8.185460157999961],[112.521776611,-8.18546774099997],[112.521792022,-8.185479166999929],[112.521788393,-8.18553532399994],[112.5217898,-8.18556849399994],[112.521796334,-8.185602920999941],[112.521810591,-8.18564752699996],[112.521830013,-8.185703596999931],[112.521840414,-8.18574438899998],[112.521866328,-8.185815331999949],[112.521865594,-8.18583287999996],[112.521862487,-8.18585761399993],[112.521856984,-8.18588395199993],[112.521853076,-8.185908688999969],[112.521849965,-8.18593262499996],[112.521843652,-8.18595657299994],[112.521834138,-8.185980533999951],[112.52181348,-8.186020685999949],[112.521779398,-8.18604914799994],[112.521724935,-8.18609997099998],[112.521691454,-8.18613598399997],[112.521662831,-8.186186333999959],[112.521653471,-8.18625096599993],[112.521653716,-8.186315561999949],[112.521653898,-8.186363409999959],[112.5216589,-8.186416025999961],[112.521666286,-8.18646384799996],[112.521676027,-8.186499697999979],[112.521687874,-8.18655257099994],[112.521134944,-8.18665848099994],[112.520851375,-8.186806832999929],[112.520663143,-8.18692912999995],[112.520554624,-8.186999635999941],[112.520203532,-8.18722774399993],[112.519952048,-8.18740643199993],[112.518366751,-8.18853284099993],[112.518350969,-8.188544054999969],[112.516763642,-8.18968056099993],[112.515565169,-8.190268866999929],[112.515268899,-8.190387734999939],[112.513967583,-8.19090984199994],[112.511900509,-8.192081163999941],[112.510501492,-8.192973490999981],[112.509806984,-8.19321911599997],[112.509178446,-8.193302474999941],[112.508601613,-8.193363547999979],[112.507544704,-8.193639981999979],[112.506048355,-8.19377812999994],[112.504568361,-8.19368791499994],[112.50360613,-8.19356630799996],[112.503003205,-8.193392075999951],[112.502970547,-8.193377735999951],[112.502360779,-8.193109994999929],[112.501617365,-8.192783571999939],[112.500727599,-8.19225664399994],[112.499962887,-8.19153777499997],[112.499160746,-8.190701212999951],[112.498812509,-8.190562581999931],[112.498538945,-8.190607783999949],[112.498266012,-8.190822364999971],[112.498030979,-8.19127983299995],[112.497825979,-8.191855017999959],[112.49758352,-8.192305147999949],[112.496128687,-8.19364541199997],[112.494578643,-8.193149492999961],[112.493342394,-8.19262960599997],[112.492332099,-8.19200941099996],[112.491269911,-8.19100961999993],[112.490203654,-8.189828988999979],[112.489689695,-8.189206952999941],[112.489399137,-8.18879099099996],[112.489292787,-8.18863873899994],[112.490265678,-8.18744153699993],[112.491433423,-8.18632499499995],[112.49294692,-8.18483642999996],[112.493183962,-8.184622382999979],[112.493982595,-8.183901221999969],[112.495017395,-8.18288463299996],[112.495779982,-8.182033320999951],[112.495919494,-8.181877577999961],[112.496317289,-8.181315468999969],[112.49639568,-8.18089018099994],[112.496454185,-8.18064133699994],[112.496631866,-8.17988558899998],[112.496894143,-8.17888090099996],[112.497078056,-8.178156820999961],[112.497369717,-8.17773074299993],[112.497688077,-8.177467330999949],[112.49798004,-8.177122634999931],[112.498218686,-8.176778135999941],[112.498616515,-8.17637879099993],[112.499174961,-8.17600597999996],[112.499599817,-8.17570600099998],[112.499999453,-8.17548749899993],[112.500167236,-8.17530602699998],[112.500300725,-8.17520606399995],[112.500551821,-8.175006196999959],[112.500617743,-8.174888400999979],[112.500569186,-8.17464443399996],[112.50052817,-8.17444565099993],[112.500465068,-8.17425599399996],[112.500432113,-8.17408882999996],[112.500481282,-8.17400875499993],[112.500518371,-8.17394835199997],[112.500582762,-8.17387577299996],[112.500686011,-8.17378221199994],[112.500801812,-8.17375124199998],[112.500969494,-8.17378423699995],[112.501123658,-8.173761842999969],[112.50147125,-8.17354529999994],[112.501534931,-8.173449096999949],[112.501544684,-8.173413723999939],[112.501656707,-8.173007450999931],[112.50171197,-8.17267414499997],[112.50177649,-8.17244840699993],[112.501880407,-8.172217749999961],[112.502136147,-8.171951726999961],[112.502205069,-8.17178714299996],[112.502332377,-8.17169671299996],[112.502540406,-8.17169667099995],[112.502658204,-8.17170282699993],[112.502777547,-8.17163462699995],[112.502840975,-8.17147247199995],[112.502862379,-8.17133267899993],[112.502943363,-8.171224839999979],[112.502994786,-8.171156365999931],[112.503202986,-8.171120625999951],[112.503386352,-8.17105597999995],[112.503568168,-8.17098294699997],[112.50371092,-8.17092770999994],[112.503862024,-8.170737395999939],[112.503959775,-8.17055272399995],[112.504184382,-8.17040537699995],[112.504280974,-8.170318376999941],[112.504381648,-8.170029666999939],[112.5044635,-8.169879796999959],[112.504620625,-8.16969864899994],[112.504728219,-8.16943583799997],[112.504849377,-8.16933212899994],[112.505047093,-8.16928114299998],[112.505233786,-8.169225086999971],[112.505468952,-8.169144197999969],[112.505638766,-8.16906923099998],[112.505787827,-8.169021861999971],[112.506095338,-8.16913974299996],[112.506262232,-8.16894107199994],[112.50635108,-8.168823753999961],[112.506372213,-8.168668198999971],[112.506372374,-8.16866701599997],[112.506381798,-8.168450692999951],[112.50643076,-8.16835399699994],[112.506459688,-8.168338742999939],[112.506569235,-8.16828097599995],[112.506662127,-8.16820663499993],[112.506672713,-8.16814153999997],[112.506682976,-8.16807843299995],[112.506783271,-8.16796477099996],[112.506791231,-8.16795879599994],[112.506937795,-8.16784877199996],[112.506759151,-8.16767609499993],[112.50666777,-8.167587766999929],[112.5067688,-8.16737848899993],[112.506830199,-8.167306326999951],[112.506883711,-8.16724343499993],[112.507001795,-8.167117238999939],[112.507073918,-8.16695365999993],[112.507061053,-8.16691305899997],[112.507034984,-8.16683078499995],[112.507178596,-8.166520773999929],[112.507287458,-8.16632771399998],[112.507268153,-8.166153701999971],[112.507318587,-8.16592372099996],[112.507455718,-8.165749658999969],[112.50762308,-8.16561208899998],[112.507699406,-8.16544700399993],[112.50787145,-8.165155900999929],[112.508071459,-8.16481002499995],[112.508294376,-8.164608794999941],[112.508501883,-8.164304690999931],[112.508579829,-8.16414088199997],[112.508676389,-8.163976245999949],[112.508770945,-8.163765984999941],[112.508967933,-8.163446778999971],[112.509279425,-8.163355844999961],[112.509458059,-8.16318291999994],[112.50996823,-8.16263234099995],[112.510184682,-8.162299775999941],[112.510841181,-8.161499831999951],[112.511147583,-8.161249869999949],[112.511473122,-8.16098069699996],[112.511881945,-8.160723972999961],[112.512213886,-8.16045477599994],[112.512424148,-8.16017965199995],[112.512506785,-8.160019844999971],[112.513728563,-8.158559440999969],[112.513733289,-8.158558792999941],[112.513875607,-8.158429914999941],[112.513996553,-8.15827510399993],[112.514132014,-8.15811573699995],[112.514140081,-8.15810843399993],[112.51421428,-8.158041262999969],[112.514580172,-8.157603000999931],[112.514792725,-8.157369479999939],[112.515104953,-8.156662304999941],[112.515291731,-8.15641154299993],[112.515631446,-8.156383185999969],[112.515761339,-8.15637234299993],[112.515885409,-8.156246787999979],[112.516052053,-8.15613582099996],[112.516167148,-8.15608088099998],[112.516318673,-8.15601552399994],[112.516377664,-8.155973551999979],[112.516484703,-8.15589739499995],[112.516733686,-8.15583015999994],[112.517097579,-8.15591597399998],[112.51741109,-8.155989905999951],[112.517411182,-8.15598992799994]]]]}}
]
}
